{
"type": "FeatureCollection",
"name": "DU_University_Chapters",
"crs": { "type": "name", "properties": { "name": "urn:ogc:def:crs:OGC:1.3:CRS84" } },
"features": [
{ "type": "Feature", "properties": { "OBJECTID": 2, "University_Chapter": "Florida State University", "City": "Tallahassee", "State": "FL", "ChapterID": "FL0110", "MEVR_RD": "Jarrett Lafferty" }, "geometry": { "type": "Point", "coordinates": [ -84.304272636999897, 30.438110943 ] } },
{ "type": "Feature", "properties": { "OBJECTID": 3, "University_Chapter": "Abraham Baldwin Agricultural College", "City": "Tifton", "State": "GA", "ChapterID": "GA0020", "MEVR_RD": "Brice Crawford" }, "geometry": { "type": "Point", "coordinates": [ -83.510064467, 31.463418268000101 ] } },
{ "type": "Feature", "properties": { "OBJECTID": 4, "University_Chapter": "University of Georgia", "City": "Athens", "State": "GA", "ChapterID": "GA0133", "MEVR_RD": "Scott James" }, "geometry": { "type": "Point", "coordinates": [ -83.383246443, 33.955464353 ] } },
{ "type": "Feature", "properties": { "OBJECTID": 5, "University_Chapter": "Georgia Southern University", "City": "Statesboro", "State": "GA", "ChapterID": "GA0144", "MEVR_RD": "Brice Crawford" }, "geometry": { "type": "Point", "coordinates": [ -81.779237339, 32.445146145 ] } },
{ "type": "Feature", "properties": { "OBJECTID": 6, "University_Chapter": "Georgia Tech University", "City": "Atlanta", "State": "GA", "ChapterID": "GA0147", "MEVR_RD": "Scott James" }, "geometry": { "type": "Point", "coordinates": [ -84.403173241, 33.7595092110001 ] } },
{ "type": "Feature", "properties": { "OBJECTID": 7, "University_Chapter": "University of Alabama", "City": "Tuscaloosa", "State": "AL", "ChapterID": "AL0107", "MEVR_RD": "Neely Raper" }, "geometry": { "type": "Point", "coordinates": [ -87.534609192999895, 33.2065366960001 ] } },
{ "type": "Feature", "properties": { "OBJECTID": 9, "University_Chapter": "University of Auburn", "City": "Auburn", "State": "AL", "ChapterID": "AL0114", "MEVR_RD": "Neely Raper" }, "geometry": { "type": "Point", "coordinates": [ -85.488982012405501, 32.602128983247198 ] } },
{ "type": "Feature", "properties": { "OBJECTID": 11, "University_Chapter": "Iowa State University", "City": "Ames", "State": "IA", "ChapterID": "IA0104", "MEVR_RD": "Josh Finley" }, "geometry": { "type": "Point", "coordinates": [ -93.631582491, 42.0273363310001 ] } },
{ "type": "Feature", "properties": { "OBJECTID": 12, "University_Chapter": "Southern Illinois University", "City": "Carbondale", "State": "IL", "ChapterID": "IL0211", "MEVR_RD": "Benny Magalski" }, "geometry": { "type": "Point", "coordinates": [ -89.220273632, 37.726417706000099 ] } },
{ "type": "Feature", "properties": { "OBJECTID": 13, "University_Chapter": "University of Delaware", "City": "Newark", "State": "DE", "ChapterID": "DE0016", "MEVR_RD": "Taylor Deemer" }, "geometry": { "type": "Point", "coordinates": [ -75.758037284999901, 39.6791093470001 ] } },
{ "type": "Feature", "properties": { "OBJECTID": 15, "University_Chapter": "Purdue University", "City": "West Lafayette", "State": "IN", "ChapterID": "IN0120", "MEVR_RD": "Josh Hall" }, "geometry": { "type": "Point", "coordinates": [ -86.912409518999894, 40.441936883 ] } },
{ "type": "Feature", "properties": { "OBJECTID": 17, "University_Chapter": "Kansas State University", "City": "Manhattan", "State": "KS", "ChapterID": "KS0111", "MEVR_RD": "John Ritchey" }, "geometry": { "type": "Point", "coordinates": [ -96.586818358, 39.190145864 ] } },
{ "type": "Feature", "properties": { "OBJECTID": 19, "University_Chapter": "California Polytechnic State University", "City": "San Luis Obispo", "State": "CA", "ChapterID": "CA0355", "MEVR_RD": "Derek Swindall" }, "geometry": { "type": "Point", "coordinates": [ -120.663191003, 35.274309145000103 ] } },
{ "type": "Feature", "properties": { "OBJECTID": 21, "University_Chapter": "Louisiana Tech University", "City": "Ruston ", "State": "LA", "ChapterID": "LA0147", "MEVR_RD": "Tommy Jackson" }, "geometry": { "type": "Point", "coordinates": [ -92.640463850999893, 32.529673327000097 ] } },
{ "type": "Feature", "properties": { "OBJECTID": 23, "University_Chapter": "University of Central Arkansas", "City": "Conway", "State": "AR", "ChapterID": "AR0124", "MEVR_RD": "Bob Butler" }, "geometry": { "type": "Point", "coordinates": [ -92.453318655, 35.087336876000101 ] } },
{ "type": "Feature", "properties": { "OBJECTID": 24, "University_Chapter": "U of A Razorback", "City": "Fayetteville", "State": "AR", "ChapterID": "AR0110", "MEVR_RD": "Tye Anderson" }, "geometry": { "type": "Point", "coordinates": [ -94.160910188999907, 36.076382166 ] } },
{ "type": "Feature", "properties": { "OBJECTID": 25, "University_Chapter": "Louisiana State University", "City": "Baton Rouge", "State": "LA", "ChapterID": "LA0085", "MEVR_RD": "Zac Brown" }, "geometry": { "type": "Point", "coordinates": [ -91.184172450999895, 30.412283033000101 ] } },
{ "type": "Feature", "properties": { "OBJECTID": 26, "University_Chapter": "Chico State University", "City": "Chico", "State": "CA", "ChapterID": "CA0300", "MEVR_RD": "Brian Henderson" }, "geometry": { "type": "Point", "coordinates": [ -121.835463245, 39.739981762000099 ] } },
{ "type": "Feature", "properties": { "OBJECTID": 28, "University_Chapter": "Southeast Louisiana University", "City": "Hammond", "State": "LA", "ChapterID": "LA0157", "MEVR_RD": "Zac Brown" }, "geometry": { "type": "Point", "coordinates": [ -90.465618317, 30.504446397 ] } },
{ "type": "Feature", "properties": { "OBJECTID": 29, "University_Chapter": "Colorado State University", "City": "Fort Collins ", "State": "CO", "ChapterID": "CO0108", "MEVR_RD": "Erik Wettersten" }, "geometry": { "type": "Point", "coordinates": [ -105.078300374, 40.559236561 ] } },
{ "type": "Feature", "properties": { "OBJECTID": 30, "University_Chapter": "McNeese State University", "City": "Lake Charles", "State": "LA", "ChapterID": "LA0159", "MEVR_RD": "Derrick Davis" }, "geometry": { "type": "Point", "coordinates": [ -93.208536906999896, 30.214655572 ] } },
{ "type": "Feature", "properties": { "OBJECTID": 31, "University_Chapter": "Michigan State University", "City": "Lansing", "State": "MI", "ChapterID": "MI0010", "MEVR_RD": "Craig Curtis" }, "geometry": { "type": "Point", "coordinates": [ -84.558523518999905, 42.721365267000103 ] } },
{ "type": "Feature", "properties": { "OBJECTID": 33, "University_Chapter": "Arkansas Tech University", "City": "Russellville", "State": "AR", "ChapterID": "AR0130", "MEVR_RD": "Tye Anderson" }, "geometry": { "type": "Point", "coordinates": [ -93.136818773, 35.278426965000101 ] } },
{ "type": "Feature", "properties": { "OBJECTID": 35, "University_Chapter": "University of Louisiana- Lafayette", "City": "Lafayette", "State": "LA", "ChapterID": "LA0149", "MEVR_RD": "Derrick Davis" }, "geometry": { "type": "Point", "coordinates": [ -92.029364609, 30.21390046 ] } },
{ "type": "Feature", "properties": { "OBJECTID": 36, "University_Chapter": "Minnesota State University", "City": "Mankato", "State": "MN", "ChapterID": "MN0255", "MEVR_RD": "Ben Vaughn" }, "geometry": { "type": "Point", "coordinates": [ -93.9938003, 44.164500602 ] } },
{ "type": "Feature", "properties": { "OBJECTID": 37, "University_Chapter": "Bemidji State University", "City": "Bemidji", "State": "MN", "ChapterID": "MN0221", "MEVR_RD": "Dalton Rosin" }, "geometry": { "type": "Point", "coordinates": [ -94.877737305, 47.476526828 ] } },
{ "type": "Feature", "properties": { "OBJECTID": 38, "University_Chapter": "Winona State University ", "City": "Winona ", "State": "MN", "ChapterID": "MN0325", "MEVR_RD": null }, "geometry": { "type": "Point", "coordinates": [ -91.647155072, 44.0481550330001 ] } },
{ "type": "Feature", "properties": { "OBJECTID": 40, "University_Chapter": "University of Mississippi", "City": "Oxford", "State": "MS", "ChapterID": "MS0114", "MEVR_RD": "Hunter Pridgen" }, "geometry": { "type": "Point", "coordinates": [ -89.526246194999899, 34.359836403 ] } },
{ "type": "Feature", "properties": { "OBJECTID": 41, "University_Chapter": "Mississippi State University", "City": "Starkville", "State": "MS", "ChapterID": "MS0123", "MEVR_RD": "Hunter Pridgen" }, "geometry": { "type": "Point", "coordinates": [ -88.81999209, 33.462473554 ] } },
{ "type": "Feature", "properties": { "OBJECTID": 43, "University_Chapter": "Murray State University", "City": "Murray", "State": "KY", "ChapterID": "KY0082", "MEVR_RD": "Bob Bezkor" }, "geometry": { "type": "Point", "coordinates": [ -88.31565545, 36.609491730000101 ] } },
{ "type": "Feature", "properties": { "OBJECTID": 44, "University_Chapter": "Montana State University", "City": "Bozeman", "State": "MT", "ChapterID": "MT0071", "MEVR_RD": "Barry Allen" }, "geometry": { "type": "Point", "coordinates": [ -111.047273419, 45.677891384000098 ] } },
{ "type": "Feature", "properties": { "OBJECTID": 45, "University_Chapter": "University of Minnesota- Duluth", "City": "Duluth", "State": "MN", "ChapterID": "MN0293", "MEVR_RD": "Rodney Schlafer" }, "geometry": { "type": "Point", "coordinates": [ -92.117081936, 46.780372542000102 ] } },
{ "type": "Feature", "properties": { "OBJECTID": 47, "University_Chapter": "North Carolina State University", "City": "Raleigh", "State": "NC", "ChapterID": "NC0162", "MEVR_RD": "Larry Wilkins" }, "geometry": { "type": "Point", "coordinates": [ -78.644592160999906, 35.818836385000097 ] } },
{ "type": "Feature", "properties": { "OBJECTID": 48, "University_Chapter": "Missouri State University", "City": "Springfield", "State": "MO", "ChapterID": "MO0171", "MEVR_RD": "Todd Carlton" }, "geometry": { "type": "Point", "coordinates": [ -93.286209763, 37.195100106 ] } },
{ "type": "Feature", "properties": { "OBJECTID": 49, "University_Chapter": "University of Minnesota", "City": "Minneapolis", "State": "MN", "ChapterID": "MN0323", "MEVR_RD": "John Marks" }, "geometry": { "type": "Point", "coordinates": [ -93.268200333, 44.964463718 ] } },
{ "type": "Feature", "properties": { "OBJECTID": 50, "University_Chapter": "University of North Carolina at Chapel Hill", "City": "Chapel Hill", "State": "NC", "ChapterID": "NC0166", "MEVR_RD": "Larry Wilkins" }, "geometry": { "type": "Point", "coordinates": [ -79.039464280999894, 35.925918263 ] } },
{ "type": "Feature", "properties": { "OBJECTID": 51, "University_Chapter": "North Dakota State University", "City": "Fargo", "State": "ND", "ChapterID": "ND0077", "MEVR_RD": "Terry Lassiter" }, "geometry": { "type": "Point", "coordinates": [ -96.80865492, 46.8714175060001 ] } },
{ "type": "Feature", "properties": { "OBJECTID": 52, "University_Chapter": "University of North Carolina at Wilmington ", "City": "Wilmington", "State": "NC", "ChapterID": "NC0171", "MEVR_RD": "Dave Neal" }, "geometry": { "type": "Point", "coordinates": [ -77.912118956, 34.223236619 ] } },
{ "type": "Feature", "properties": { "OBJECTID": 53, "University_Chapter": "Appalachian State University", "City": "Boone", "State": "NC", "ChapterID": "NC0125", "MEVR_RD": "Jon Sturgill" }, "geometry": { "type": "Point", "coordinates": [ -81.668655401, 36.2113640580001 ] } },
{ "type": "Feature", "properties": { "OBJECTID": 54, "University_Chapter": "University of Missouri", "City": "Columbia ", "State": "MO", "ChapterID": "MO0160", "MEVR_RD": "Trevor Hickman" }, "geometry": { "type": "Point", "coordinates": [ -92.333781727, 38.9483550100001 ] } },
{ "type": "Feature", "properties": { "OBJECTID": 55, "University_Chapter": "University of Nevada- Reno", "City": "Reno", "State": "NV", "ChapterID": "NV0046", "MEVR_RD": "Billie Ray Fann" }, "geometry": { "type": "Point", "coordinates": [ -119.821808635, 39.527109286 ] } },
{ "type": "Feature", "properties": { "OBJECTID": 58, "University_Chapter": "State University of New York College of Environmental Science and Forestry", "City": "Syracuse ", "State": "NY", "ChapterID": "NY0225", "MEVR_RD": "Trevor Bentley" }, "geometry": { "type": "Point", "coordinates": [ -76.144427084, 43.046900499000103 ] } },
{ "type": "Feature", "properties": { "OBJECTID": 59, "University_Chapter": "University of Southern Mississippi", "City": "Hattiesburg", "State": "MS", "ChapterID": "MS0131", "MEVR_RD": "Tommy Ware" }, "geometry": { "type": "Point", "coordinates": [ -89.308654705, 31.3159726660001 ] } },
{ "type": "Feature", "properties": { "OBJECTID": 60, "University_Chapter": "Oklahoma State University", "City": "Stillwater", "State": "OK", "ChapterID": "OK0119", "MEVR_RD": "Nathan Johnson" }, "geometry": { "type": "Point", "coordinates": [ -97.068537337, 36.121536725000098 ] } },
{ "type": "Feature", "properties": { "OBJECTID": 61, "University_Chapter": "Lake Superior State University", "City": "Sault Ste. Marie ", "State": "MI", "ChapterID": "MI0229", "MEVR_RD": "Kevin Stoltz" }, "geometry": { "type": "Point", "coordinates": [ -84.3642383279999, 46.493349469000101 ] } },
{ "type": "Feature", "properties": { "OBJECTID": 63, "University_Chapter": "Citadel College", "City": "Charleston", "State": "SC", "ChapterID": "SC0085", "MEVR_RD": "James Meadows" }, "geometry": { "type": "Point", "coordinates": [ -79.961664449750799, 32.796290336194602 ] } },
{ "type": "Feature", "properties": { "OBJECTID": 65, "University_Chapter": "Anderson University", "City": "Anderson ", "State": "SC", "ChapterID": "SC0101", "MEVR_RD": "Tanner Quattlebaum" }, "geometry": { "type": "Point", "coordinates": [ -82.648946259, 34.514509031 ] } },
{ "type": "Feature", "properties": { "OBJECTID": 66, "University_Chapter": "East Carolina University", "City": "Greenville", "State": "NC", "ChapterID": "NC0168", "MEVR_RD": "Dave Neal" }, "geometry": { "type": "Point", "coordinates": [ -77.372364628999904, 35.601609595000099 ] } },
{ "type": "Feature", "properties": { "OBJECTID": 67, "University_Chapter": "Clemson University", "City": "Clemson", "State": "SC", "ChapterID": "SC0082", "MEVR_RD": "Tanner Quattlebaum" }, "geometry": { "type": "Point", "coordinates": [ -82.814773352, 34.684927723 ] } },
{ "type": "Feature", "properties": { "OBJECTID": 70, "University_Chapter": "University of Tennessee-Knoxville", "City": "Knoxville", "State": "TN", "ChapterID": "TN0087", "MEVR_RD": "Charlie Lowery" }, "geometry": { "type": "Point", "coordinates": [ -83.942164491, 35.972881859 ] } },
{ "type": "Feature", "properties": { "OBJECTID": 73, "University_Chapter": "University of South Carolina", "City": "Columbia ", "State": "SC", "ChapterID": "SC0079", "MEVR_RD": "James Meadows" }, "geometry": { "type": "Point", "coordinates": [ -81.010755333, 34.017109246000103 ] } },
{ "type": "Feature", "properties": { "OBJECTID": 76, "University_Chapter": "Texas A&M University", "City": "College Station", "State": "TX", "ChapterID": "TX0217", "MEVR_RD": null }, "geometry": { "type": "Point", "coordinates": [ -96.346168147556, 30.605795670052601 ] } },
{ "type": "Feature", "properties": { "OBJECTID": 78, "University_Chapter": "University of Tennessee at Martin", "City": "Martin", "State": "TN", "ChapterID": "TN0117", "MEVR_RD": "Jimbo Robinson" }, "geometry": { "type": "Point", "coordinates": [ -88.865615256549901, 36.3409679399144 ] } },
{ "type": "Feature", "properties": { "OBJECTID": 79, "University_Chapter": "University of Nebraska- Lincoln", "City": "Lincoln", "State": "NE", "ChapterID": "NE0101", "MEVR_RD": "Steve Wilson" }, "geometry": { "type": "Point", "coordinates": [ -96.710623551937402, 40.817151817135901 ] } },
{ "type": "Feature", "properties": { "OBJECTID": 80, "University_Chapter": "Texas Tech University", "City": "Lubbock", "State": "TX", "ChapterID": "TX0164", "MEVR_RD": "Randall Foster" }, "geometry": { "type": "Point", "coordinates": [ -101.872888138920004, 33.591060461613601 ] } },
{ "type": "Feature", "properties": { "OBJECTID": 81, "University_Chapter": "James Madison University", "City": "Harrisonburg", "State": "VA", "ChapterID": "VA0100", "MEVR_RD": "Shawn Kooyman" }, "geometry": { "type": "Point", "coordinates": [ -78.872755545, 38.443282004 ] } },
{ "type": "Feature", "properties": { "OBJECTID": 82, "University_Chapter": "University of Wisconsin-Madison", "City": "Madison", "State": "WI", "ChapterID": "WI0303", "MEVR_RD": "William Gross" }, "geometry": { "type": "Point", "coordinates": [ -89.394755129, 43.074609771 ] } },
{ "type": "Feature", "properties": { "OBJECTID": 83, "University_Chapter": "Milwaukee School of Engineering ", "City": "Milwaukee", "State": "WI", "ChapterID": "WI0328", "MEVR_RD": "Tom Munich" }, "geometry": { "type": "Point", "coordinates": [ -87.955909371, 43.052164101000102 ] } },
{ "type": "Feature", "properties": { "OBJECTID": 85, "University_Chapter": "Tennessee Tech University", "City": "Cookeville", "State": "TN", "ChapterID": "TN0111", "MEVR_RD": "Charlie Lowery" }, "geometry": { "type": "Point", "coordinates": [ -85.506150414847298, 36.178118883774601 ] } },
{ "type": "Feature", "properties": { "OBJECTID": 87, "University_Chapter": "Stephen F. Austin State University", "City": "Nacogdoches", "State": "TX", "ChapterID": "TX0255", "MEVR_RD": "Jason McKey" }, "geometry": { "type": "Point", "coordinates": [ -94.644384323020006, 31.6257210301182 ] } },
{ "type": "Feature", "properties": { "OBJECTID": 88, "University_Chapter": "Virginia Tech University", "City": "Blacksburg", "State": "VA", "ChapterID": "VA0089", "MEVR_RD": "Shawn Kooyman" }, "geometry": { "type": "Point", "coordinates": [ -80.417691218999906, 37.229873329 ] } },
{ "type": "Feature", "properties": { "OBJECTID": 89, "University_Chapter": "South Dakota State University ", "City": "Brookings ", "State": "SD", "ChapterID": "SD0118", "MEVR_RD": "Don Thorpe" }, "geometry": { "type": "Point", "coordinates": [ -96.780130498180597, 44.320988947403798 ] } },
{ "type": "Feature", "properties": { "OBJECTID": 91, "University_Chapter": "University of Wisconsin-Stevens Point", "City": "Stevens Point", "State": "WI", "ChapterID": "WI0340", "MEVR_RD": "Michael Brumley" }, "geometry": { "type": "Point", "coordinates": [ -89.560318511, 44.523036516 ] } },
{ "type": "Feature", "properties": { "OBJECTID": 494, "University_Chapter": "University of North Georgia", "City": "Dahlonega", "State": "GA", "ChapterID": "GA0173", "MEVR_RD": "Scott James" }, "geometry": { "type": "Point", "coordinates": [ -83.984070824999904, 34.527711047 ] } },
{ "type": "Feature", "properties": { "OBJECTID": 895, "University_Chapter": "College of Saint Benedict & Saint John's University", "City": "St. Joseph", "State": "MN", "ChapterID": "MN0295", "MEVR_RD": "Kyle Momsen" }, "geometry": { "type": "Point", "coordinates": [ -94.320215526, 45.5588056610001 ] } },
{ "type": "Feature", "properties": { "OBJECTID": 897, "University_Chapter": "Sewnee: The University of the South", "City": "Sewanee", "State": "TN", "ChapterID": "TN0096", "MEVR_RD": "Charlie Lowery" }, "geometry": { "type": "Point", "coordinates": [ -85.918931436, 35.204197456 ] } },
{ "type": "Feature", "properties": { "OBJECTID": 1295, "University_Chapter": "Gustavus Adolphus College", "City": "St. Peter", "State": "MN", "ChapterID": "MN0335", "MEVR_RD": "Ben Vaughn" }, "geometry": { "type": "Point", "coordinates": [ -93.971489955, 44.323282730000102 ] } },
{ "type": "Feature", "properties": { "OBJECTID": 1297, "University_Chapter": "Michigan Tech University", "City": "Houghton", "State": "MI", "ChapterID": "MI0248", "MEVR_RD": null }, "geometry": { "type": "Point", "coordinates": [ -88.549947878, 47.110223528000098 ] } },
{ "type": "Feature", "properties": { "OBJECTID": 1696, "University_Chapter": "State University of New York at Cobleskill", "City": "Cobleskill", "State": "NY", "ChapterID": "NY0222", "MEVR_RD": null }, "geometry": { "type": "Point", "coordinates": [ -74.504260648, 42.671820158000102 ] } },
{ "type": "Feature", "properties": { "OBJECTID": 1698, "University_Chapter": "Texas State University", "City": "Marcos", "State": "TX", "ChapterID": "TX0246", "MEVR_RD": null }, "geometry": { "type": "Point", "coordinates": [ -97.939955003, 29.8890250910001 ] } },
{ "type": "Feature", "properties": { "OBJECTID": 1699, "University_Chapter": "Hampden-Sydney College", "City": "Farmville", "State": "VA", "ChapterID": "VA0090", "MEVR_RD": "Shawn Kooyman" }, "geometry": { "type": "Point", "coordinates": [ -78.459182203, 37.243520854000103 ] } },
{ "type": "Feature", "properties": { "OBJECTID": 1700, "University_Chapter": "University of Wisconsin-Stout", "City": "Stout", "State": "WI", "ChapterID": "WI0342", "MEVR_RD": "Rodney Schlafer" }, "geometry": { "type": "Point", "coordinates": [ -91.927800724999898, 44.873682448000103 ] } },
{ "type": "Feature", "properties": { "OBJECTID": 1708, "University_Chapter": "University of Tennessee-Chattanooga", "City": "Chattanooga", "State": "TN", "ChapterID": "TN132", "MEVR_RD": "Charlie Lowery" }, "geometry": { "type": "Point", "coordinates": [ -85.2974609417724, 35.045264131127098 ] } },
{ "type": "Feature", "properties": { "OBJECTID": 1711, "University_Chapter": "University of Wisconsin-Whitewater", "City": "Whitewater", "State": "WI", "ChapterID": "WI0331", "MEVR_RD": "Tom Munich" }, "geometry": { "type": "Point", "coordinates": [ -88.743578134918096, 42.837195780105198 ] } },
{ "type": "Feature", "properties": { "OBJECTID": 1712, "University_Chapter": "Georgia College & State University", "City": "Milledgeville", "State": "GA", "ChapterID": "GA0151", "MEVR_RD": "Brice Crawford" }, "geometry": { "type": "Point", "coordinates": [ -83.228505862426701, 33.080997978037502 ] } },
{ "type": "Feature", "properties": { "OBJECTID": 1714, "University_Chapter": "Texas A&M Commerce", "City": "Commerce", "State": "TX", "ChapterID": "TX0091", "MEVR_RD": "Russ Hawley" }, "geometry": { "type": "Point", "coordinates": [ -95.908386998672299, 33.244280478526001 ] } },
{ "type": "Feature", "properties": { "OBJECTID": 1715, "University_Chapter": "University of Virginia", "City": "Charlottesville", "State": "VA", "ChapterID": "VA0088", "MEVR_RD": "Shawn Kooyman" }, "geometry": { "type": "Point", "coordinates": [ -78.515739148254696, 38.033886106835503 ] } },
{ "type": "Feature", "properties": { "OBJECTID": 1716, "University_Chapter": "Campbell University", "City": "Buies Creek", "State": "NC", "ChapterID": "NC0144", "MEVR_RD": "Dave Neal" }, "geometry": { "type": "Point", "coordinates": [ -78.739453644180699, 35.408358577835401 ] } },
{ "type": "Feature", "properties": { "OBJECTID": 1717, "University_Chapter": "University of Arizona", "City": "Tuscon", "State": "AZ", "ChapterID": "AZ0070", "MEVR_RD": "Andrew Limmer" }, "geometry": { "type": "Point", "coordinates": [ -110.953881322632, 32.231896753417097 ] } },
{ "type": "Feature", "properties": { "OBJECTID": 1722, "University_Chapter": "University of Nebraska- Kearney", "City": "Kearney", "State": "NE", "ChapterID": "NE0116", "MEVR_RD": "Pat Baughman" }, "geometry": { "type": "Point", "coordinates": [ -99.096349967689306, 40.701703292254798 ] } },
{ "type": "Feature", "properties": { "OBJECTID": 1723, "University_Chapter": "Ohio State University", "City": "Columbus", "State": "OH", "ChapterID": "OH0131", "MEVR_RD": "Aaron Dynes" }, "geometry": { "type": "Point", "coordinates": [ -83.011075576781707, 39.999646720461797 ] } },
{ "type": "Feature", "properties": { "OBJECTID": 1727, "University_Chapter": "University of Florida/Gainesville", "City": "Gainesville", "State": "FL", "ChapterID": "FL-0126", "MEVR_RD": "Jarrett Lafferty" }, "geometry": { "type": "Point", "coordinates": [ -82.355244387382896, 29.642362842802001 ] } },
{ "type": "Feature", "properties": { "OBJECTID": 1729, "University_Chapter": "Arkansas State University", "City": "Jonesboro", "State": "AR", "ChapterID": "AR-0113", "MEVR_RD": "Tye Anderson" }, "geometry": { "type": "Point", "coordinates": [ -90.675736165353698, 35.841675845082598 ] } },
{ "type": "Feature", "properties": { "OBJECTID": 1730, "University_Chapter": "Vandal Chapter", "City": "Moscow", "State": "ID", "ChapterID": "ID-0089", "MEVR_RD": "Mond Warren" }, "geometry": { "type": "Point", "coordinates": [ -117.014284571532997, 46.728181890542302 ] } },
{ "type": "Feature", "properties": { "OBJECTID": 1731, "University_Chapter": "LSU Eunice", "City": "Eunice", "State": "LA", "ChapterID": "LA-0161", "MEVR_RD": "Derrick Davis" }, "geometry": { "type": "Point", "coordinates": [ -92.435144897469002, 30.474665185570899 ] } },
{ "type": "Feature", "properties": { "OBJECTID": 1732, "University_Chapter": "Michigan Tech University", "City": "Houghton", "State": "MI", "ChapterID": "MI-0248", "MEVR_RD": "Chris Anderson" }, "geometry": { "type": "Point", "coordinates": [ -88.550598424289205, 47.119183316440797 ] } },
{ "type": "Feature", "properties": { "OBJECTID": 1733, "University_Chapter": "Ferris State University", "City": "Big Rapids", "State": "MI", "ChapterID": "MI-0260", "MEVR_RD": "Craig Curtis" }, "geometry": { "type": "Point", "coordinates": [ -85.482480031738206, 43.6865499351726 ] } },
{ "type": "Feature", "properties": { "OBJECTID": 1734, "University_Chapter": "Davidson College", "City": "Davidson", "State": "NC", "ChapterID": "NC-0231", "MEVR_RD": "Jon Sturgill" }, "geometry": { "type": "Point", "coordinates": [ -80.847046708984294, 35.499342805885 ] } },
{ "type": "Feature", "properties": { "OBJECTID": 1735, "University_Chapter": "St. Lawrence University", "City": "Canton", "State": "NY", "ChapterID": "NY-0217", "MEVR_RD": "UNKNOWN" }, "geometry": { "type": "Point", "coordinates": [ -75.159566677246104, 44.593545160979701 ] } },
{ "type": "Feature", "properties": { "OBJECTID": 1736, "University_Chapter": "College of Charleston", "City": "Charleston", "State": "SC", "ChapterID": "SC-0007", "MEVR_RD": "James Meadows" }, "geometry": { "type": "Point", "coordinates": [ -79.937647431494099, 32.784834526386199 ] } },
{ "type": "Feature", "properties": { "OBJECTID": 1737, "University_Chapter": "VMI", "City": "Lexington", "State": "VA", "ChapterID": "VA-0102", "MEVR_RD": "Shawn Kooyman" }, "geometry": { "type": "Point", "coordinates": [ -79.439355321972798, 37.7900810211503 ] } }
]
}
